$$SOE
2460728.500000000, A.D. 2025-Feb-22 00:00:00.0000, -1.678300826575670E+08, -2.719708927108861E+08, -1.734925967839278E+07,
2460735.500000000, A.D. 2025-Mar-01 00:00:00.0000, -1.561901980921017E+08, -2.768777892441845E+08, -1.772443193538238E+07,
2460742.500000000, A.D. 2025-Mar-08 00:00:00.0000, -1.443154538422107E+08, -2.813683188888705E+08, -1.807294643726572E+07,
2460749.500000000, A.D. 2025-Mar-15 00:00:00.0000, -1.322202936391349E+08, -2.854290743987175E+08, -1.839385207821803E+07,
2460756.500000000, A.D. 2025-Mar-22 00:00:00.0000, -1.199200378653431E+08, -2.890470406021155E+08, -1.868621997555287E+07,
2460763.500000000, A.D. 2025-Mar-29 00:00:00.0000, -1.074308893950999E+08, -2.922096586833904E+08, -1.894914765968442E+07,
2460770.500000000, A.D. 2025-Apr-05 00:00:00.0000, -9.476993322354539E+07, -2.949048925786996E+08, -1.918176356504279E+07,
2460777.500000000, A.D. 2025-Apr-12 00:00:00.0000, -8.195513130903564E+07, -2.971212971072257E+08, -1.938323162099786E+07,
2460784.500000000, A.D. 2025-Apr-19 00:00:00.0000, -6.900531231754649E+07, -2.988480883709497E+08, -1.955275597701155E+07,
2460791.500000000, A.D. 2025-Apr-26 00:00:00.0000, -5.594015551244793E+07, -3.000752162012918E+08, -1.968958587779415E+07,
2460798.500000000, A.D. 2025-May-03 00:00:00.0000, -4.278016821503020E+07, -3.007934381290520E+08, -1.979302066632774E+07,
2460805.500000000, A.D. 2025-May-10 00:00:00.0000, -2.954665638397742E+07, -3.009943942843975E+08, -1.986241488002004E+07,
2460812.500000000, A.D. 2025-May-17 00:00:00.0000, -1.626168790683106E+07, -3.006706825998275E+08, -1.989718340325467E+07,
2460819.500000000, A.D. 2025-May-24 00:00:00.0000, -2.948048121231821E+06, -2.998159336156108E+08, -1.989680664618754E+07,
2460826.500000000, A.D. 2025-May-31 00:00:00.0000, 1.037081309258738E+07, -2.984248837454503E+08, -1.986083570737907E+07,
2460833.500000000, A.D. 2025-Jun-07 00:00:00.0000, 2.367084240411261E+07, -2.964934449123834E+08, -1.978889732794110E+07,
2460840.500000000, A.D. 2025-Jun-14 00:00:00.0000, 3.692744999186901E+07, -2.940187702965441E+08, -1.968069841629645E+07,
2460847.500000000, A.D. 2025-Jun-21 00:00:00.0000, 5.011558350305527E+07, -2.909993185041987E+08, -1.953603046079011E+07,
2460854.500000000, A.D. 2025-Jun-28 00:00:00.0000, 6.320981191887721E+07, -2.874349134029973E+08, -1.935477390686192E+07,
2460861.500000000, A.D. 2025-Jul-05 00:00:00.0000, 7.618441744273390E+07, -2.833267964597785E+08, -1.913690211361994E+07,
2460868.500000000, A.D. 2025-Jul-12 00:00:00.0000, 8.901349371101046E+07, -2.786776713813889E+08, -1.888248477496186E+07,
2460875.500000000, A.D. 2025-Jul-19 00:00:00.0000, 1.016710498647207E+08, -2.734917406602629E+08, -1.859169079951178E+07,
2460882.500000000, A.D. 2025-Jul-26 00:00:00.0000, 1.141311198997646E+08, -2.677747331709616E+08, -1.826479060739464E+07,
2460889.500000000, A.D. 2025-Aug-02 00:00:00.0000, 1.263678764307763E+08, -2.615339219772571E+08, -1.790215778919627E+07,
2460896.500000000, A.D. 2025-Aug-09 00:00:00.0000, 1.383557478303160E+08, -2.547781316613776E+08, -1.750427008057995E+07,
2460903.500000000, A.D. 2025-Aug-16 00:00:00.0000, 1.500695376425617E+08, -2.475177346745061E+08, -1.707170962486124E+07,
2460910.500000000, A.D. 2025-Aug-23 00:00:00.0000, 1.614845452884323E+08, -2.397646362908614E+08, -1.660516251892827E+07,
2460917.500000000, A.D. 2025-Aug-30 00:00:00.0000, 1.725766870359549E+08, -2.315322472274789E+08, -1.610541759398967E+07,
2460924.500000000, A.D. 2025-Sep-06 00:00:00.0000, 1.833226144098199E+08, -2.228354428874256E+08, -1.557336420985585E+07,
2460931.500000000, A.D. 2025-Sep-13 00:00:00.0000, 1.936998269425498E+08, -2.136905118531003E+08, -1.500998911525708E+07,
2460938.500000000, A.D. 2025-Sep-20 00:00:00.0000, 2.036867811324867E+08, -2.041150956115187E+08, -1.441637282496236E+07,
2460945.500000000, A.D. 2025-Sep-27 00:00:00.0000, 2.132629953130649E+08, -1.941281169392114E+08, -1.379368538618295E+07,
2460952.500000000, A.D. 2025-Oct-04 00:00:00.0000, 2.224091471434724E+08, -1.837496971402616E+08, -1.314318134790476E+07,
2460959.500000000, A.D. 2025-Oct-11 00:00:00.0000, 2.311071621827294E+08, -1.730010639879779E+08, -1.246619403086907E+07,
2460966.500000000, A.D. 2025-Oct-18 00:00:00.0000, 2.393402928039229E+08, -1.619044517070481E+08, -1.176412921268325E+07,
2460973.500000000, A.D. 2025-Oct-25 00:00:00.0000, 2.470931867227618E+08, -1.504829941794094E+08, -1.103845831556262E+07,
2460980.500000000, A.D. 2025-Nov-01 00:00:00.0000, 2.543519444945340E+08, -1.387606126573741E+08, -1.029071118239607E+07,
2460987.500000000, A.D. 2025-Nov-08 00:00:00.0000, 2.611041655196961E+08, -1.267618993890709E+08, -9.522468536046617E+06,
2460994.500000000, A.D. 2025-Nov-15 00:00:00.0000, 2.673389824061010E+08, -1.145119986277283E+08, -8.735354233378284E+06,
2461001.500000000, A.D. 2025-Nov-22 00:00:00.0000, 2.730470839910098E+08, -1.020364862191564E+08, -7.931027427565217E+06,
2461008.500000000, A.D. 2025-Nov-29 00:00:00.0000, 2.782207269790918E+08, -8.936124802495593E+07, -7.111174624910612E+06,
2461015.500000000, A.D. 2025-Dec-06 00:00:00.0000, 2.828537342189718E+08, -7.651235866986793E+07, -6.277501528573785E+06,
2461022.500000000, A.D. 2025-Dec-13 00:00:00.0000, 2.869414805086086E+08, -6.351596525567359E+07, -5.431725070959669E+06,
2461029.500000000, A.D. 2025-Dec-20 00:00:00.0000, 2.904808700262075E+08, -5.039817617744235E+07, -4.575565951970506E+06,
2461036.500000000, A.D. 2025-Dec-27 00:00:00.0000, 2.934703050550303E+08, -3.718495348800188E+07, -3.710741445211623E+06,
2461043.500000000, A.D. 2026-Jan-03 00:00:00.0000, 2.959096453951213E+08, -2.390201033147458E+07, -2.838958452271724E+06,
2461050.500000000, A.D. 2026-Jan-10 00:00:00.0000, 2.978001595042111E+08, -1.057471488566439E+07, -1.961906925040499E+06,
2461057.500000000, A.D. 2026-Jan-17 00:00:00.0000, 2.991444685883704E+08, 2.771998484740262E+06, -1.081253729573461E+06,
2461064.500000000, A.D. 2026-Jan-24 00:00:00.0000, 2.999464847404808E+08, 1.611371042729948E+07, -1.986369915708210E+05,
2461071.500000000, A.D. 2026-Jan-31 00:00:00.0000, 3.002113441801888E+08, 2.942658983363253E+07, 6.843390488655437E+05,
2461078.500000000, A.D. 2026-Feb-07 00:00:00.0000, 2.999453366774573E+08, 4.268745887376132E+07, 1.566108647509824E+06,
2461085.500000000, A.D. 2026-Feb-14 00:00:00.0000, 2.991558324041027E+08, 5.587384977128325E+07, 2.445148600109156E+06,
2461092.500000000, A.D. 2026-Feb-21 00:00:00.0000, 2.978512075384567E+08, 6.896405396328829E+07, 3.319981732418340E+06,
2461099.500000000, A.D. 2026-Feb-28 00:00:00.0000, 2.960407684108810E+08, 8.193716497494796E+07, 4.189180038161684E+06,
2461106.500000000, A.D. 2026-Mar-07 00:00:00.0000, 2.937346729481286E+08, 9.477311332488592E+07, 5.051367509557873E+06,
2461113.500000000, A.D. 2026-Mar-14 00:00:00.0000, 2.909438529232547E+08, 1.074526914577299E+08, 5.905222232711658E+06,
2461120.500000000, A.D. 2026-Mar-21 00:00:00.0000, 2.876799394250174E+08, 1.199575720026492E+08, 6.749477842305154E+06,
2461127.500000000, A.D. 2026-Mar-28 00:00:00.0000, 2.839551900997363E+08, 1.322703208503741E+08, 7.582924631366305E+06,
2461134.500000000, A.D. 2026-Apr-04 00:00:00.0000, 2.797824180624503E+08, 1.443744045791565E+08, 8.404410324680276E+06,
2461141.500000000, A.D. 2026-Apr-11 00:00:00.0000, 2.751749231771232E+08, 1.562541923763088E+08, 9.212840495293751E+06,
2461148.500000000, A.D. 2026-Apr-18 00:00:00.0000, 2.701464262075972E+08, 1.678949529569984E+08, 1.000717864281195E+07,
2461155.500000000, A.D. 2026-Apr-25 00:00:00.0000, 2.647110061463527E+08, 1.792828470021477E+08, 1.078644596359037E+07,
2461162.500000000, A.D. 2026-May-02 00:00:00.0000, 2.588830409410043E+08, 1.904049155876794E+08, 1.154972084004089E+07,
2461169.500000000, A.D. 2026-May-09 00:00:00.0000, 2.526771518707889E+08, 2.012490650295022E+08, 1.229613806409588E+07,
2461176.500000000, A.D. 2026-May-16 00:00:00.0000, 2.461081520266737E+08, 2.118040487548373E+08, 1.302488780239770E+07,
2461183.500000000, A.D. 2026-May-23 00:00:00.0000, 2.391909989745156E+08, 2.220594476654620E+08, 1.373521441079262E+07,
2461190.500000000, A.D. 2026-May-30 00:00:00.0000, 2.319407494980206E+08, 2.320056497256693E+08, 1.442641534185497E+07,
2461197.500000000, A.D. 2026-Jun-06 00:00:00.0000, 2.243725160486938E+08, 2.416338258999538E+08, 1.509783993452647E+07,
2461204.500000000, A.D. 2026-Jun-13 00:00:00.0000, 2.165014284981214E+08, 2.509359030037497E+08, 1.574888779053719E+07,
2461211.500000000, A.D. 2026-Jun-20 00:00:00.0000, 2.083426005853754E+08, 2.599045367144233E+08, 1.637900704362124E+07,
2461218.500000000, A.D. 2026-Jun-27 00:00:00.0000, 1.999110992303168E+08, 2.685330846966034E+08, 1.698769266927017E+07,
2461225.500000000, A.D. 2026-Jul-04 00:00:00.0000, 1.912219165699243E+08, 2.768155793332329E+08, 1.757448478985496E+07,
2461232.500000000, A.D. 2026-Jul-11 00:00:00.0000, 1.822899448187273E+08, 2.847467001667974E+08, 1.813896695718479E+07,
2461239.500000000, A.D. 2026-Jul-18 00:00:00.0000, 1.731299538854035E+08, 2.923217462841572E+08, 1.868076442033470E+07,
2461246.500000000, A.D. 2026-Jul-25 00:00:00.0000, 1.637565716045040E+08, 2.995366088285756E+08, 1.919954238922267E+07,
2461253.500000000, A.D. 2026-Aug-01 00:00:00.0000, 1.541842664637523E+08, 3.063877437468458E+08, 1.969500429649900E+07,
2461260.500000000, A.D. 2026-Aug-08 00:00:00.0000, 1.444273328742908E+08, 3.128721448692947E+08, 2.016689004461983E+07,
2461267.500000000, A.D. 2026-Aug-15 00:00:00.0000, 1.344998792346417E+08, 3.189873178873376E+08, 2.061497424509600E+07,
2461274.500000000, A.D. 2026-Aug-22 00:00:00.0000, 1.244158178696905E+08, 3.247312565429269E+08, 2.103906462598881E+07,
2461281.500000000, A.D. 2026-Aug-29 00:00:00.0000, 1.141888543978284E+08, 3.301024197239674E+08, 2.143900071008657E+07,
2461288.500000000, A.D. 2026-Sep-05 00:00:00.0000, 1.038324785015710E+08, 3.350997066578690E+08, 2.181465233901446E+07,
2461295.500000000, A.D. 2026-Sep-12 00:00:00.0000, 9.335995841629611E+07, 3.397224327542101E+08, 2.216591802650015E+07,
$$EOE